ATLAS CENTAUR R/B       
1 06155U 72065B   26004.23065698  .00001921  00000+0  26568-3 0  9990
2 06155  35.0032 323.4478 0034071 189.2883 170.7190 14.77482356831720
SL-8 R/B                
1 08459U 75112B   26004.50767590  .00000446  00000+0  15556-3 0  9991
2 08459  74.0609 136.9796 0016680 246.1708 113.7698 14.38163677622645
SL-3 R/B                
1 10114U 77057B   26004.45042979  .00015521  00000+0  34663-3 0  9993
2 10114  97.5690 173.6744 0007953 147.1462 213.0281 15.43594923658412
SEASAT 1                
1 10967U 78064A   26004.51046413  .00000673  00000+0  22666-3 0  9994
2 10967 108.0142 350.8103 0001205 263.3145  96.7863 14.46092123497239
SL-14 R/B               
1 11267U 79011B   26004.39245466  .00001130  00000+0  10944-3 0  9991
2 11267  82.5248 157.5601 0014656 272.6671  87.2871 14.91806894519194
SL-8 R/B                
1 11574U 79089B   26004.30964304  .00000324  00000+0  10610-3 0  9991
2 11574  74.0673 210.2066 0015028  35.6314 324.5842 14.42298895426824
SL-14 R/B               
1 11672U 80005B   26004.49753824  .00001037  00000+0  10264-3 0  9990
2 11672  82.5138   8.1125 0016361  23.0368 337.1581 14.90826314466925
SL-8 R/B                
1 12139U 81003B   26004.37350160  .00028082  00000+0  74110-3 0  9990
2 12139  82.9369 349.3746 0275072  42.6491 319.5736 15.07957984304972
SL-3 R/B                
1 12465U 81046B   26004.43801134  .00013567  00000+0  33529-3 0  9999
2 12465  81.2316   6.7712 0017997 240.0175 119.9281 15.40180957428539
SL-3 R/B                
1 12904U 81103B   26004.49740741  .00007464  00000+0  33901-3 0  9996
2 12904  81.1607 288.6973 0013672 135.8399 224.3927 15.20561605963470
SL-3 R/B                
1 13068U 82013B   26004.46852893  .00005548  00000+0  24492-3 0  9994
2 13068  81.1729 236.0023 0023662  38.0683 322.2214 15.21320595394589
SL-3 R/B                
1 13154U 82039B   26004.44081009  .00004275  00000+0  26130-3 0  9996
2 13154  81.1703 289.9770 0029619 175.2738 184.8773 15.09689114371944
