CCSDS_OMM_VERS = 2.0
CREATION_DATE  = 
ORIGINATOR     = 

OBJECT_NAME    = ATLAS CENTAUR R/B
OBJECT_ID      = 1972-065B
CENTER_NAME    = EARTH
REF_FRAME      = TEME
TIME_SYSTEM    = UTC
MEAN_ELEMENT_THEORY = SGP/SGP4

EPOCH          = 2026-01-04T05:32:08.763072
MEAN_MOTION    = 14.77482356
ECCENTRICITY   = .0034071
INCLINATION    = 35.0032
RA_OF_ASC_NODE = 323.4478
ARG_OF_PERICENTER = 189.2883
MEAN_ANOMALY   = 170.7190

EPHEMERIS_TYPE = 0
CLASSIFICATION_TYPE = U
NORAD_CAT_ID   = 6155
ELEMENT_SET_NO = 999
REV_AT_EPOCH   = 83172
BSTAR          = .26568E-3
MEAN_MOTION_DOT = .1921E-4
MEAN_MOTION_DDOT = 0

CCSDS_OMM_VERS = 2.0
CREATION_DATE  = 
ORIGINATOR     = 

OBJECT_NAME    = SL-8 R/B
OBJECT_ID      = 1975-112B
CENTER_NAME    = EARTH
REF_FRAME      = TEME
TIME_SYSTEM    = UTC
MEAN_ELEMENT_THEORY = SGP/SGP4

EPOCH          = 2026-01-04T12:11:03.197760
MEAN_MOTION    = 14.38163677
ECCENTRICITY   = .001668
INCLINATION    = 74.0609
RA_OF_ASC_NODE = 136.9796
ARG_OF_PERICENTER = 246.1708
MEAN_ANOMALY   = 113.7698

EPHEMERIS_TYPE = 0
CLASSIFICATION_TYPE = U
NORAD_CAT_ID   = 8459
ELEMENT_SET_NO = 999
REV_AT_EPOCH   = 62264
BSTAR          = .15556E-3
MEAN_MOTION_DOT = .446E-5
MEAN_MOTION_DDOT = 0

CCSDS_OMM_VERS = 2.0
CREATION_DATE  = 
ORIGINATOR     = 

OBJECT_NAME    = SL-3 R/B
OBJECT_ID      = 1977-057B
CENTER_NAME    = EARTH
REF_FRAME      = TEME
TIME_SYSTEM    = UTC
MEAN_ELEMENT_THEORY = SGP/SGP4

EPOCH          = 2026-01-04T10:48:37.133856
MEAN_MOTION    = 15.43594923
ECCENTRICITY   = .0007953
INCLINATION    = 97.5690
RA_OF_ASC_NODE = 173.6744
ARG_OF_PERICENTER = 147.1462
MEAN_ANOMALY   = 213.0281

EPHEMERIS_TYPE = 0
CLASSIFICATION_TYPE = U
NORAD_CAT_ID   = 10114
ELEMENT_SET_NO = 999
REV_AT_EPOCH   = 65841
BSTAR          = .34663E-3
MEAN_MOTION_DOT = .15521E-3
MEAN_MOTION_DDOT = 0

CCSDS_OMM_VERS = 2.0
CREATION_DATE  = 
ORIGINATOR     = 

OBJECT_NAME    = SEASAT 1
OBJECT_ID      = 1978-064A
CENTER_NAME    = EARTH
REF_FRAME      = TEME
TIME_SYSTEM    = UTC
MEAN_ELEMENT_THEORY = SGP/SGP4

EPOCH          = 2026-01-04T12:15:04.100832
MEAN_MOTION    = 14.46092123
ECCENTRICITY   = .0001205
INCLINATION    = 108.0142
RA_OF_ASC_NODE = 350.8103
ARG_OF_PERICENTER = 263.3145
MEAN_ANOMALY   = 96.7863

EPHEMERIS_TYPE = 0
CLASSIFICATION_TYPE = U
NORAD_CAT_ID   = 10967
ELEMENT_SET_NO = 999
REV_AT_EPOCH   = 49723
BSTAR          = .22666E-3
MEAN_MOTION_DOT = .673E-5
MEAN_MOTION_DDOT = 0

CCSDS_OMM_VERS = 2.0
CREATION_DATE  = 
ORIGINATOR     = 

OBJECT_NAME    = SL-14 R/B
OBJECT_ID      = 1979-011B
CENTER_NAME    = EARTH
REF_FRAME      = TEME
TIME_SYSTEM    = UTC
MEAN_ELEMENT_THEORY = SGP/SGP4

EPOCH          = 2026-01-04T09:25:08.082624
MEAN_MOTION    = 14.91806894
ECCENTRICITY   = .0014656
INCLINATION    = 82.5248
RA_OF_ASC_NODE = 157.5601
ARG_OF_PERICENTER = 272.6671
MEAN_ANOMALY   = 87.2871

EPHEMERIS_TYPE = 0
CLASSIFICATION_TYPE = U
NORAD_CAT_ID   = 11267
ELEMENT_SET_NO = 999
REV_AT_EPOCH   = 51919
BSTAR          = .10944E-3
MEAN_MOTION_DOT = .113E-4
MEAN_MOTION_DDOT = 0

CCSDS_OMM_VERS = 2.0
CREATION_DATE  = 
ORIGINATOR     = 

OBJECT_NAME    = SL-8 R/B
OBJECT_ID      = 1979-089B
CENTER_NAME    = EARTH
REF_FRAME      = TEME
TIME_SYSTEM    = UTC
MEAN_ELEMENT_THEORY = SGP/SGP4

EPOCH          = 2026-01-04T07:25:53.158656
MEAN_MOTION    = 14.42298895
ECCENTRICITY   = .0015028
INCLINATION    = 74.0673
RA_OF_ASC_NODE = 210.2066
ARG_OF_PERICENTER = 35.6314
MEAN_ANOMALY   = 324.5842

EPHEMERIS_TYPE = 0
CLASSIFICATION_TYPE = U
NORAD_CAT_ID   = 11574
ELEMENT_SET_NO = 999
REV_AT_EPOCH   = 42682
BSTAR          = .1061E-3
MEAN_MOTION_DOT = .324E-5
MEAN_MOTION_DDOT = 0

CCSDS_OMM_VERS = 2.0
CREATION_DATE  = 
ORIGINATOR     = 

OBJECT_NAME    = SL-14 R/B
OBJECT_ID      = 1980-005B
CENTER_NAME    = EARTH
REF_FRAME      = TEME
TIME_SYSTEM    = UTC
MEAN_ELEMENT_THEORY = SGP/SGP4

EPOCH          = 2026-01-04T11:56:27.303936
MEAN_MOTION    = 14.90826314
ECCENTRICITY   = .0016361
INCLINATION    = 82.5138
RA_OF_ASC_NODE = 8.1125
ARG_OF_PERICENTER = 23.0368
MEAN_ANOMALY   = 337.1581

EPHEMERIS_TYPE = 0
CLASSIFICATION_TYPE = U
NORAD_CAT_ID   = 11672
ELEMENT_SET_NO = 999
REV_AT_EPOCH   = 46692
BSTAR          = .10264E-3
MEAN_MOTION_DOT = .1037E-4
MEAN_MOTION_DDOT = 0

CCSDS_OMM_VERS = 2.0
CREATION_DATE  = 
ORIGINATOR     = 

OBJECT_NAME    = SL-8 R/B
OBJECT_ID      = 1981-003B
CENTER_NAME    = EARTH
REF_FRAME      = TEME
TIME_SYSTEM    = UTC
MEAN_ELEMENT_THEORY = SGP/SGP4

EPOCH          = 2026-01-04T08:57:50.538240
MEAN_MOTION    = 15.07957984
ECCENTRICITY   = .0275072
INCLINATION    = 82.9369
RA_OF_ASC_NODE = 349.3746
ARG_OF_PERICENTER = 42.6491
MEAN_ANOMALY   = 319.5736

EPHEMERIS_TYPE = 0
CLASSIFICATION_TYPE = U
NORAD_CAT_ID   = 12139
ELEMENT_SET_NO = 999
REV_AT_EPOCH   = 30497
BSTAR          = .7411E-3
MEAN_MOTION_DOT = .28082E-3
MEAN_MOTION_DDOT = 0

CCSDS_OMM_VERS = 2.0
CREATION_DATE  = 
ORIGINATOR     = 

OBJECT_NAME    = SL-3 R/B
OBJECT_ID      = 1981-046B
CENTER_NAME    = EARTH
REF_FRAME      = TEME
TIME_SYSTEM    = UTC
MEAN_ELEMENT_THEORY = SGP/SGP4

EPOCH          = 2026-01-04T10:30:44.179776
MEAN_MOTION    = 15.40180957
ECCENTRICITY   = .0017997
INCLINATION    = 81.2316
RA_OF_ASC_NODE = 6.7712
ARG_OF_PERICENTER = 240.0175
MEAN_ANOMALY   = 119.9281

EPHEMERIS_TYPE = 0
CLASSIFICATION_TYPE = U
NORAD_CAT_ID   = 12465
ELEMENT_SET_NO = 999
REV_AT_EPOCH   = 42853
BSTAR          = .33529E-3
MEAN_MOTION_DOT = .13567E-3
MEAN_MOTION_DDOT = 0

CCSDS_OMM_VERS = 2.0
CREATION_DATE  = 
ORIGINATOR     = 

OBJECT_NAME    = SL-3 R/B
OBJECT_ID      = 1981-103B
CENTER_NAME    = EARTH
REF_FRAME      = TEME
TIME_SYSTEM    = UTC
MEAN_ELEMENT_THEORY = SGP/SGP4

EPOCH          = 2026-01-04T11:56:16.000224
MEAN_MOTION    = 15.20561605
ECCENTRICITY   = .0013672
INCLINATION    = 81.1607
RA_OF_ASC_NODE = 288.6973
ARG_OF_PERICENTER = 135.8399
MEAN_ANOMALY   = 224.3927

EPHEMERIS_TYPE = 0
CLASSIFICATION_TYPE = U
NORAD_CAT_ID   = 12904
ELEMENT_SET_NO = 999
REV_AT_EPOCH   = 96347
BSTAR          = .33901E-3
MEAN_MOTION_DOT = .7464E-4
MEAN_MOTION_DDOT = 0

CCSDS_OMM_VERS = 2.0
CREATION_DATE  = 
ORIGINATOR     = 

OBJECT_NAME    = SL-3 R/B
OBJECT_ID      = 1982-013B
CENTER_NAME    = EARTH
REF_FRAME      = TEME
TIME_SYSTEM    = UTC
MEAN_ELEMENT_THEORY = SGP/SGP4

EPOCH          = 2026-01-04T11:14:40.899552
MEAN_MOTION    = 15.21320595
ECCENTRICITY   = .0023662
INCLINATION    = 81.1729
RA_OF_ASC_NODE = 236.0023
ARG_OF_PERICENTER = 38.0683
MEAN_ANOMALY   = 322.2214

EPHEMERIS_TYPE = 0
CLASSIFICATION_TYPE = U
NORAD_CAT_ID   = 13068
ELEMENT_SET_NO = 999
REV_AT_EPOCH   = 39458
BSTAR          = .24492E-3
MEAN_MOTION_DOT = .5548E-4
MEAN_MOTION_DDOT = 0

CCSDS_OMM_VERS = 2.0
CREATION_DATE  = 
ORIGINATOR     = 

OBJECT_NAME    = SL-3 R/B
OBJECT_ID      = 1982-039B
CENTER_NAME    = EARTH
REF_FRAME      = TEME
TIME_SYSTEM    = UTC
MEAN_ELEMENT_THEORY = SGP/SGP4

EPOCH          = 2026-01-04T10:34:45.991776
MEAN_MOTION    = 15.09689114
ECCENTRICITY   = .0029619
INCLINATION    = 81.1703
RA_OF_ASC_NODE = 289.9770
ARG_OF_PERICENTER = 175.2738
MEAN_ANOMALY   = 184.8773

EPHEMERIS_TYPE = 0
CLASSIFICATION_TYPE = U
NORAD_CAT_ID   = 13154
ELEMENT_SET_NO = 999
REV_AT_EPOCH   = 37194
BSTAR          = .2613E-3
MEAN_MOTION_DOT = .4275E-4
MEAN_MOTION_DDOT = 0

